LEMUR-2-VALHALLA        
1 58900U 24022B   26189.51761269  .00012113  00000+0  30170-3 0  9996
2 58900  97.4095  39.7731 0009908  46.0433 314.1629 15.40344373135553
LEMUR-2-CAEL            
1 58903U 24022E   26189.31438536  .00011966  00000+0  28531-3 0  9998
2 58903  97.4078  40.5408 0007903  33.0363 327.1376 15.41690753135593
LEMUR-2-JOHNNYTRUONG    
1 59146U 24043BA  26189.36477794  .00029538  00000+0  33735-3 0  9991
2 59146  97.5390 342.4070 0004301 112.6150 247.5563 15.62147729131342
LEMUR-2-TOMATOKECHUP    
1 60471U 24149D   26188.75549897  .00007285  00000+0  20696-3 0  9994
2 60471  97.3789 270.8599 0002964 136.0140 224.1341 15.36476705105321
LEMUR-2-STELLA          
1 60533U 24149BT  26189.19257312  .00006723  00000+0  39238-3 0  9998
2 60533  97.6726 271.7449 0001060 111.1796 248.9548 15.12271376103675
LEMUR-2-MARHISYAM       
1 60536U 24149BW  26189.51171933  .00007928  00000+0  46939-3 0  9995
2 60536  97.6873 272.5360 0002784  79.6906 280.4637 15.11690447103704
LEMUR-2-AHMED-ASRAR     
1 60576U 24149DN  26189.06206650  .00007058  00000+0  40129-3 0  9993
2 60576  97.6996 274.2584 0000633 252.4432 107.6729 15.13199165103724
LEMUR-2-LLOYD           
1 60577U 24149DP  26188.46016496  .00006420  00000+0  40278-3 0  9991
2 60577  97.6734 269.6046 0004910  90.2019 269.9772 15.09650711103451
LEMUR-2-SQUIRRELCOMM    
1 60578U 24149DQ  26189.03451372  .00003681  00000+0  24740-3 0  9994
2 60578  97.6707 269.8822 0004747 354.4134   5.7039 15.07397331103543
LEMUR-2-SIERRINI        
1 60579U 24149DR  26189.47320892  .00006107  00000+0  36517-3 0  9996
2 60579  97.6833 272.1651 0006539 108.1566 252.0376 15.11415684103677
LEMUR-2-WILSON          
1 62694U 25009CP  26189.44302668  .00001736  00000+0  16290-3 0  9999
2 62694  97.7023 267.5350 0002513   1.2947 358.8280 14.95263092 80530
LEMUR-2-STAR-FOX        
1 62696U 25009CR  26189.46852531  .00003548  00000+0  26967-3 0  9997
2 62696  97.6924 270.9258 0003181  65.7549 294.4008 15.02789253 80759
LEMUR-2-ARIANNA         
1 62699U 25009CU  26189.46699399  .00003741  00000+0  28415-3 0  9996
2 62699  97.6862 270.6819 0003507  71.2529 288.9076 15.02788966 80758
LEMUR-2-ALISIA          
1 62706U 25009DB  26189.50738368  .00005947  00000+0  44512-3 0  9996
2 62706  97.6958 271.5331 0003544 150.6602 209.4822 15.03106706103364
LEMUR-2-ROUNDTRIPPER    
1 62711U 25009DG  26189.18463662  .00005736  00000+0  41779-3 0  9996
2 62711  97.7226 271.8364 0004413  80.0579 280.1144 15.04150285 80788
LEMUR-2-MYNAMEISJEFF    
1 62712U 25009DH  26189.51570681  .00006515  00000+0  47393-3 0  9998
2 62712  97.7283 272.5606 0003596 113.0683 247.0922 15.04147613 80836
